FLOCK 4BE-35            
1 60558U 24149CU  26119.21897902  .00085797  00000+0  12808-2 0  9997
2 60558  97.3719 203.5750 0003779 152.6719 207.4735 15.54752354 94823
FLOCK 4BE-5             
1 60559U 24149CV  26119.21511090  .00016322  00000+0  42630-3 0  9994
2 60559  97.3849 202.7992 0004797 114.8871 245.2874 15.38856391 94740
FLOCK 4BE-3             
1 60561U 24149CX  26119.17918595  .00015965  00000+0  40116-3 0  9992
2 60561  97.3700 202.6796 0005801 109.0901 251.0973 15.40041236 94794
FLOCK 4BE-19            
1 60563U 24149CZ  26119.23988814  .00017078  00000+0  39608-3 0  9993
2 60563  97.3743 204.0537 0005736 110.7169 249.4694 15.42454476 94870
FLOCK 4G-8              
1 62613U 25009E   26119.20617100  .00009320  00000+0  33551-3 0  9993
2 62613  97.4013 201.4523 0005719 124.4371 235.7410 15.28790116 71432
FLOCK 4G-13             
1 62621U 25009N   26119.20434401  .00052375  00000+0  13719-2 0  9994
2 62621  97.3976 201.8279 0005532 141.7052 218.4587 15.38513131 71457
FLOCK 4G-9              
1 62622U 25009P   26119.21069757  .00008238  00000+0  31156-3 0  9999
2 62622  97.3967 200.5535 0006078 129.5761 230.6016 15.27200725 71381
FLOCK 4G-7              
1 62624U 25009R   26119.16790905  .00009592  00000+0  35067-3 0  9990
2 62624  97.3950 200.8022 0004237 124.2118 235.9524 15.28282908 71412
FLOCK 4G-12             
1 62625U 25009S   26119.22282656  .00010262  00000+0  37638-3 0  9999
2 62625  97.4028 201.3402 0005822 120.9607 239.2205 15.28150504 71425
FLOCK 4G-11             
1 62629U 25009W   26119.21507841  .00009066  00000+0  33103-3 0  9991
2 62629  97.3934 200.9737 0004289 125.6625 234.5014 15.28338302 71439
PELICAN-2               
1 62631U 25009Y   26119.20256519  .00031567  00000+0  77735-3 0  9996
2 62631  97.3534 210.0263 0005395 100.6025 259.5829 15.40518354 72017
FLOCK 4G-26             
1 62633U 25009AA  26119.16896583  .00009843  00000+0  35848-3 0  9995
2 62633  97.4024 201.4211 0004953 115.4083 244.7670 15.28397341 71429
FLOCK 4G-28             
1 62634U 25009AB  26119.21109230  .00007933  00000+0  24327-3 0  9996
2 62634  97.4027 203.6073 0003434 113.1289 247.0316 15.34035605 71577
FLOCK 4G-20             
1 62636U 25009AD  26119.18052181  .00071568  00000+0  15328-2 0  9991
2 62636  97.3893 202.4903 0004032 166.0847 194.0513 15.44513873 71535
FLOCK 4G-24             
1 62637U 25009AE  26119.20227896  .00009080  00000+0  32542-3 0  9990
2 62637  97.4029 201.7011 0004582 105.6196 254.5550 15.28950732 71440
FLOCK 4G-3              
1 62639U 25009AG  26119.16806711  .00009662  00000+0  35249-3 0  9999
2 62639  97.4031 201.4375 0004497 112.4110 247.7607 15.28348570 71417
FLOCK 4G-27             
1 62641U 25009AJ  26119.18554883  .00010447  00000+0  38110-3 0  9997
2 62641  97.3943 200.9006 0003720 117.2009 242.9610 15.28331270 71414
FLOCK 4G-29             
1 62642U 25009AK  26119.17598084  .00009913  00000+0  36050-3 0  9995
2 62642  97.4028 201.4030 0004492 108.9758 251.1968 15.28445898 71418
FLOCK 4G-22             
1 62645U 25009AN  26119.18754478  .00008764  00000+0  32041-3 0  9999
2 62645  97.4014 201.4780 0003982 110.0226 250.1442 15.28308467 71433
FLOCK 4G-25             
1 62646U 25009AP  26119.17120688  .00009351  00000+0  33977-3 0  9991
2 62646  97.4020 201.5107 0003551 116.6212 243.5392 15.28492859 71433
FLOCK 4G-23             
1 62647U 25009AQ  26119.21060641  .00033614  00000+0  11931-2 0  9993
2 62647  97.3946 201.0579 0002611 131.3357 228.8108 15.28973093 71433
FLOCK 4G-34             
1 62650U 25009AT  26119.16563574  .00010370  00000+0  37887-3 0  9997
2 62650  97.3969 201.0672 0003445 116.2812 243.8782 15.28284011 71429
FLOCK 4G-21             
1 62651U 25009AU  26119.30575360  .00011195  00000+0  39247-3 0  9998
2 62651  97.3998 201.9716 0003245 117.5607 242.5963 15.29617136 71486
FLOCK 4G-31             
1 62652U 25009AV  26119.18598627  .00009716  00000+0  35699-3 0  9999
2 62652  97.3975 201.0758 0003073 119.1492 241.0056 15.28117312 71429
FLOCK 4G-4              
1 62659U 25009BC  26119.19899950  .00009377  00000+0  34704-3 0  9999
2 62659  97.3958 200.8265 0003996 124.7911 235.3705 15.27885581129025
FLOCK 4G-6              
1 62660U 25009BD  26119.19834617  .00008322  00000+0  30139-3 0  9997
2 62660  97.3949 200.9136 0004722 134.4226 225.7401 15.28632464129016
FLOCK 4G-2              
1 62661U 25009BE  26119.20719434  .00009037  00000+0  32446-3 0  9996
2 62661  97.4016 201.4609 0005567 130.2321 229.9406 15.28889169129042
FLOCK 4G-5              
1 62663U 25009BG  26119.16947350  .00008868  00000+0  31124-3 0  9996
2 62663  97.4031 201.7293 0004891 116.5760 243.5982 15.29640573 71442
FLOCK 4G-1              
1 62666U 25009BK  26119.18221283  .00009878  00000+0  35715-3 0  9993
2 62666  97.4032 201.4234 0005685 128.8432 231.3316 15.28629812 71428
FLOCK 4G-14             
1 62667U 25009BL  26119.19206423  .00010288  00000+0  37602-3 0  9998
2 62667  97.4033 201.2778 0005957 124.2888 235.8917 15.28261677 71414
FLOCK 4G-10             
1 62670U 25009BP  26119.20661878  .00009298  00000+0  33983-3 0  9990
2 62670  97.3934 200.6830 0005873 137.9942 222.1749 15.28291900129056
FLOCK 4G-36             
1 62675U 25009BU  26119.20270958  .00008420  00000+0  30706-3 0  9996
2 62675  97.4021 201.2083 0006177 128.3171 231.8625 15.28392824 71415
FLOCK 4G-15             
1 62678U 25009BX  26119.21233046  .00008911  00000+0  32464-3 0  9995
2 62678  97.4024 201.3521 0006319 125.4026 234.7805 15.28408181129065
FLOCK 4G-30             
1 62679U 25009BY  26119.20230483  .00033534  00000+0  11962-2 0  9995
2 62679  97.3934 200.7024 0005447 141.2553 218.9078 15.28801493129056
FLOCK 4G-18             
1 62680U 25009BZ  26119.21016068  .00008286  00000+0  30233-3 0  9998
2 62680  97.4021 201.1786 0006617 135.6261 224.5511 15.28379227129059
FLOCK 4G-17             
1 62681U 25009CA  26119.18157517  .00010230  00000+0  37073-3 0  9991
2 62681  97.3933 200.8676 0005989 138.4984 221.6712 15.28544013129068
FLOCK 4G-33             
1 62685U 25009CE  26119.17292696  .00006317  00000+0  25689-3 0  9993
2 62685  97.3950 199.6274 0006931 134.0333 226.1477 15.24866099 71339
PELICAN-3               
1 65315U 25188A   26119.20735320  .00008733  00000+0  21601-3 0  9998
2 65315  97.1970 196.0991 0002558 125.7137 234.4348 15.40683112 37779
PELICAN-4               
1 65316U 25188B   26119.22267526  .00001360  00000+0  35377-4 0  9994
2 65316  97.1993 196.2629 0003760 138.4097 221.7437 15.40650839 37775
PELICAN-5               
1 66667U 25276B   26119.18925814  .00004491  00000+0  16459-3 0  9995
2 66667  97.4168 194.3463 0004683 140.0886 220.0699 15.28506943 23035
PELICAN-6               
1 66703U 25276AP  26119.19060708  .00004750  00000+0  17204-3 0  9996
2 66703  97.4168 194.5062 0002549  56.0956 304.0526 15.28871232 23045
FLOCK 4H-1              
1 66704U 25276AQ  26119.14470784  .00007054  00000+0  33059-3 0  9997
2 66704  97.4197 193.6227 0003573 116.9349 243.2252 15.19996253 22984
FLOCK 4H-2              
1 66705U 25276AR  26119.19736560  .00005826  00000+0  27163-3 0  9994
2 66705  97.4193 193.6971 0002765 115.9309 244.2212 15.20252849 22990
FLOCK 4H-3              
1 66706U 25276AS  26119.14307911  .00006061  00000+0  28962-3 0  9994
2 66706  97.4260 193.6005 0004819 153.9674 206.1804 15.19375745 22974
FLOCK 4H-4              
1 66707U 25276AT  26119.16759626  .00005927  00000+0  28527-3 0  9998
2 66707  97.4241 193.5355 0005359 157.2249 202.9225 15.19134174 22976
FLOCK 4H-5              
1 66708U 25276AU  26119.20541455  .00006249  00000+0  29284-3 0  9992
2 66708  97.4195 193.6983 0002304 113.4205 246.7273 15.20047945 22998
FLOCK 4H-6              
1 66709U 25276AV  26119.16954138  .00006020  00000+0  28496-3 0  9995
2 66709  97.4245 193.6925 0004539 130.1204 230.0429 15.19708440 22988
FLOCK 4H-7              
1 66710U 25276AW  26119.13904721  .00006861  00000+0  32668-3 0  9996
2 66710  97.4205 193.4905 0002682 162.6583 197.4744 15.19456313 22973
FLOCK 4H-8              
1 66711U 25276AX  26119.20058155  .00006440  00000+0  30613-3 0  9997
2 66711  97.4245 193.6493 0004013 163.1414 196.9955 15.19538147 22986
FLOCK 4H-9              
1 66712U 25276AY  26119.16356627  .00006547  00000+0  30851-3 0  9990
2 66712  97.4233 193.6824 0004525 136.2488 223.9107 15.19830701 22983
FLOCK 4H-10             
1 66713U 25276AZ  26118.76276518  .00006658  00000+0  31890-3 0  9993
2 66713  97.4210 193.0933 0005237 158.8411 201.3041 15.19253115 22919
FLOCK 4H-11             
1 66714U 25276BA  26119.18353755  .00012250  00000+0  55022-3 0  9998
2 66714  97.4221 193.7877 0003751 161.2777 198.8598 15.21295431 22993
FLOCK 4H-12             
1 66715U 25276BB  26119.15268665  .00007245  00000+0  34060-3 0  9998
2 66715  97.4205 193.6303 0003582 122.5938 237.5643 15.19876926 23297
FLOCK 4H-13             
1 66716U 25276BC  26119.19849769  .00005677  00000+0  26558-3 0  9993
2 66716  97.4242 193.7936 0002871 107.7726 252.3822 15.20143567 22992
FLOCK 4H-14             
1 66717U 25276BD  26119.17729666  .00005686  00000+0  26369-3 0  9995
2 66717  97.4222 193.7934 0002528 103.7083 256.4434 15.20443630 22246
FLOCK 4H-15             
1 66718U 25276BE  26119.17855807  .00005602  00000+0  27079-3 0  9990
2 66718  97.4237 193.5091 0004760 167.4979 192.6375 15.19007079 22972
FLOCK 4H-16             
1 66719U 25276BF  26119.16340544  .00006420  00000+0  30804-3 0  9996
2 66719  97.4254 193.5610 0005061 158.0613 202.0839 15.19206966 22972
FLOCK 4H-18             
1 66721U 25276BH  26119.16737159  .00005895  00000+0  28333-3 0  9990
2 66721  97.4196 193.4410 0004025 176.3566 183.7699 15.19187446 22976
FLOCK 4H-19             
1 66722U 25276BJ  26119.16425965  .00005813  00000+0  26917-3 0  9996
2 66722  97.4197 193.7545 0003259 102.7703 257.3897 15.20490749 22281
